{
  "type": "FeatureCollection",
  "features": [
    {
      "type": "Feature",
      "properties": {
        "norad_id": 34540,
        "name": "IRIDIUM 33 DEB",
        "group": "iridium-33-debris",
        "lat": -38.05827566396347,
        "lon": 126.61532819880239,
        "alt_km": 649.6583421422738,
        "timestamp": "2025-12-21T05:44:51.972698+00:00",
        "meta_object_name": "IRIDIUM 33 DEB",
        "meta_object_id": "1997-051JH",
        "meta_epoch": "2025-12-20T20:52:16.995360",
        "meta_mean_motion": 14.75470808,
        "meta_eccentricity": 0.00176753,
        "meta_inclination": 86.3107,
        "meta_ra_of_asc_node": 303.8888,
        "meta_arg_of_pericenter": 131.6109,
        "meta_mean_anomaly": 282.9946,
        "meta_ephemeris_type": 0,
        "meta_classification_type": "U",
        "meta_norad_cat_id": 34540,
        "meta_element_set_no": 999,
        "meta_rev_at_epoch": 89141,
        "meta_bstar": 0.0010029574,
        "meta_mean_motion_dot": 6.861e-05,
        "meta_mean_motion_ddot": 0,
        "tle_line1": "1 34540U 97051JH  25354.86964115  .00006861  00000+0  10030-2 0  9993",
        "tle_line2": "2 34540  86.3107 303.8888 0017675 131.6109 282.9946 14.75470808891415"
      },
      "geometry": {
        "type": "Point",
        "coordinates": [
          126.61532819880239,
          -38.05827566396347
        ]
      }
    },
    {
      "type": "Feature",
      "properties": {
        "norad_id": 34648,
        "name": "IRIDIUM 33 DEB",
        "group": "iridium-33-debris",
        "lat": -34.05842916655967,
        "lon": 100.9591346340558,
        "alt_km": 789.4694727309934,
        "timestamp": "2025-12-21T05:44:51.972711+00:00",
        "meta_object_name": "IRIDIUM 33 DEB",
        "meta_object_id": "1997-051JZ",
        "meta_epoch": "2025-12-20T18:30:44.390304",
        "meta_mean_motion": 14.11711756,
        "meta_eccentricity": 0.01801632,
        "meta_inclination": 86.3909,
        "meta_ra_of_asc_node": 278.7029,
        "meta_arg_of_pericenter": 273.7379,
        "meta_mean_anomaly": 84.3221,
        "meta_ephemeris_type": 0,
        "meta_classification_type": "U",
        "meta_norad_cat_id": 34648,
        "meta_element_set_no": 999,
        "meta_rev_at_epoch": 85074,
        "meta_bstar": 0.004164738,
        "meta_mean_motion_dot": 8.851e-05,
        "meta_mean_motion_ddot": 0,
        "tle_line1": "1 34648U 97051JZ  25354.77134711  .00008851  00000+0  41647-2 0  9992",
        "tle_line2": "2 34648  86.3909 278.7029 0180163 273.7379  84.3221 14.11711756850742"
      },
      "geometry": {
        "type": "Point",
        "coordinates": [
          100.9591346340558,
          -34.05842916655967
        ]
      }
    },
    {
      "type": "Feature",
      "properties": {
        "norad_id": 34651,
        "name": "IRIDIUM 33 DEB",
        "group": "iridium-33-debris",
        "lat": -10.644322608143556,
        "lon": 136.26131552868762,
        "alt_km": 910.9237530460487,
        "timestamp": "2025-12-21T05:44:51.972721+00:00",
        "meta_object_name": "IRIDIUM 33 DEB",
        "meta_object_id": "1997-051KC",
        "meta_epoch": "2025-12-19T16:44:48.420096",
        "meta_mean_motion": 14.25922062,
        "meta_eccentricity": 0.01422464,
        "meta_inclination": 86.2827,
        "meta_ra_of_asc_node": 137.6175,
        "meta_arg_of_pericenter": 181.9677,
        "meta_mean_anomaly": 178.0974,
        "meta_ephemeris_type": 0,
        "meta_classification_type": "U",
        "meta_norad_cat_id": 34651,
        "meta_element_set_no": 999,
        "meta_rev_at_epoch": 85995,
        "meta_bstar": 0.0022061693,
        "meta_mean_motion_dot": 5.865e-05,
        "meta_mean_motion_ddot": 0,
        "tle_line1": "1 34651U 97051KC  25353.69778264  .00005865  00000+0  22062-2 0  9995",
        "tle_line2": "2 34651  86.2827 137.6175 0142246 181.9677 178.0974 14.25922062859957"
      },
      "geometry": {
        "type": "Point",
        "coordinates": [
          136.26131552868762,
          -10.644322608143556
        ]
      }
    },
    {
      "type": "Feature",
      "properties": {
        "norad_id": 34652,
        "name": "IRIDIUM 33 DEB",
        "group": "iridium-33-debris",
        "lat": 66.5134451421838,
        "lon": -15.2923625891216,
        "alt_km": 696.7998431532906,
        "timestamp": "2025-12-21T05:44:51.972732+00:00",
        "meta_object_name": "IRIDIUM 33 DEB",
        "meta_object_id": "1997-051KD",
        "meta_epoch": "2025-12-20T16:52:48.078336",
        "meta_mean_motion": 14.62123856,
        "meta_eccentricity": 0.00255005,
        "meta_inclination": 86.3312,
        "meta_ra_of_asc_node": 336.455,
        "meta_arg_of_pericenter": 269.1159,
        "meta_mean_anomaly": 217.3003,
        "meta_ephemeris_type": 0,
        "meta_classification_type": "U",
        "meta_norad_cat_id": 34652,
        "meta_element_set_no": 999,
        "meta_rev_at_epoch": 88600,
        "meta_bstar": 0.00058363699,
        "meta_mean_motion_dot": 2.968e-05,
        "meta_mean_motion_ddot": 0,
        "tle_line1": "1 34652U 97051KD  25354.70333424  .00002968  00000+0  58364-3 0  9990",
        "tle_line2": "2 34652  86.3312 336.4550 0025500 269.1159 217.3003 14.62123856886002"
      },
      "geometry": {
        "type": "Point",
        "coordinates": [
          -15.2923625891216,
          66.5134451421838
        ]
      }
    },
    {
      "type": "Feature",
      "properties": {
        "norad_id": 34690,
        "name": "IRIDIUM 33 DEB",
        "group": "iridium-33-debris",
        "lat": 75.74020199474782,
        "lon": 47.731265305306124,
        "alt_km": 700.0203856038179,
        "timestamp": "2025-12-21T05:44:51.972752+00:00",
        "meta_object_name": "IRIDIUM 33 DEB",
        "meta_object_id": "1997-051KM",
        "meta_epoch": "2025-12-20T09:52:33.180096",
        "meta_mean_motion": 14.55121329,
        "meta_eccentricity": 0.0009919,
        "meta_inclination": 86.3775,
        "meta_ra_of_asc_node": 33.6571,
        "meta_arg_of_pericenter": 4.2918,
        "meta_mean_anomaly": 57.2138,
        "meta_ephemeris_type": 0,
        "meta_classification_type": "U",
        "meta_norad_cat_id": 34690,
        "meta_element_set_no": 999,
        "meta_rev_at_epoch": 88206,
        "meta_bstar": 0.00029381074,
        "meta_mean_motion_dot": 1.29e-05,
        "meta_mean_motion_ddot": 0,
        "tle_line1": "1 34690U 97051KM  25354.41149514  .00001290  00000+0  29381-3 0  9999",
        "tle_line2": "2 34690  86.3775  33.6571 0009919   4.2918  57.2138 14.55121329882060"
      },
      "geometry": {
        "type": "Point",
        "coordinates": [
          47.731265305306124,
          75.74020199474782
        ]
      }
    },
    {
      "type": "Feature",
      "properties": {
        "norad_id": 34693,
        "name": "IRIDIUM 33 DEB",
        "group": "iridium-33-debris",
        "lat": -40.23850515067328,
        "lon": 122.73174190670132,
        "alt_km": 491.42211990512715,
        "timestamp": "2025-12-21T05:44:51.972768+00:00",
        "meta_object_name": "IRIDIUM 33 DEB",
        "meta_object_id": "1997-051KQ",
        "meta_epoch": "2025-12-20T07:28:21.213696",
        "meta_mean_motion": 15.29654599,
        "meta_eccentricity": 0.00122944,
        "meta_inclination": 86.3023,
        "meta_ra_of_asc_node": 300.0572,
        "meta_arg_of_pericenter": 39.2143,
        "meta_mean_anomaly": 113.2582,
        "meta_ephemeris_type": 0,
        "meta_classification_type": "U",
        "meta_norad_cat_id": 34693,
        "meta_element_set_no": 999,
        "meta_rev_at_epoch": 89030,
        "meta_bstar": 0.0032074262,
        "meta_mean_motion_dot": 0.00093319,
        "meta_mean_motion_ddot": 0,
        "tle_line1": "1 34693U 97051KQ  25354.31135664  .00093319  00000+0  32074-2 0  9997",
        "tle_line2": "2 34693  86.3023 300.0572 0012294  39.2143 113.2582 15.29654599890303"
      },
      "geometry": {
        "type": "Point",
        "coordinates": [
          122.73174190670132,
          -40.23850515067328
        ]
      }
    },
    {
      "type": "Feature",
      "properties": {
        "norad_id": 34696,
        "name": "IRIDIUM 33 DEB",
        "group": "iridium-33-debris",
        "lat": 13.241678611352341,
        "lon": -157.3342511557844,
        "alt_km": 630.6500817495344,
        "timestamp": "2025-12-21T05:44:51.972778+00:00",
        "meta_object_name": "IRIDIUM 33 DEB",
        "meta_object_id": "1997-051KT",
        "meta_epoch": "2025-12-20T03:03:36.896832",
        "meta_mean_motion": 14.65425134,
        "meta_eccentricity": 0.0073881,
        "meta_inclination": 86.1833,
        "meta_ra_of_asc_node": 24.0835,
        "meta_arg_of_pericenter": 142.6074,
        "meta_mean_anomaly": 281.0712,
        "meta_ephemeris_type": 0,
        "meta_classification_type": "U",
        "meta_norad_cat_id": 34696,
        "meta_element_set_no": 999,
        "meta_rev_at_epoch": 86781,
        "meta_bstar": 0.0025217059,
        "meta_mean_motion_dot": 0.00014237,
        "meta_mean_motion_ddot": 0,
        "tle_line1": "1 34696U 97051KT  25354.12751038  .00014237  00000+0  25217-2 0  9991",
        "tle_line2": "2 34696  86.1833  24.0835 0073881 142.6074 281.0712 14.65425134867818"
      },
      "geometry": {
        "type": "Point",
        "coordinates": [
          -157.3342511557844,
          13.241678611352341
        ]
      }
    }
  ]
}